[{"OBJECT_NAME":"STARLINK-6129","OBJECT_ID":"2023-090R","EPOCH":"2026-03-09T13:33:09.294624","MEAN_MOTION":15.02533295,"ECCENTRICITY":0.00011496,"INCLINATION":43.0033,"RA_OF_ASC_NODE":275.4111,"ARG_OF_PERICENTER":271.2361,"MEAN_ANOMALY":88.835,"EPHEMERIS_TYPE":0,"CLASSIFICATION_TYPE":"U","NORAD_CAT_ID":57116,"ELEMENT_SET_NO":999,"REV_AT_EPOCH":15039,"BSTAR":-1.0672302e-5,"MEAN_MOTION_DOT":-3.48e-6,"MEAN_MOTION_DDOT":0},{"OBJECT_NAME":"IRIDIUM 33 DEB","OBJECT_ID":"1997-051GB","EPOCH":"2026-03-09T18:44:19.060224","MEAN_MOTION":15.02189476,"ECCENTRICITY":0.0010038,"INCLINATION":86.3931,"RA_OF_ASC_NODE":331.664,"ARG_OF_PERICENTER":138.3098,"MEAN_ANOMALY":291.9123,"EPHEMERIS_TYPE":0,"CLASSIFICATION_TYPE":"U","NORAD_CAT_ID":34486,"ELEMENT_SET_NO":999,"REV_AT_EPOCH":90290,"BSTAR":0.0023709806,"MEAN_MOTION_DOT":0.00031372,"MEAN_MOTION_DDOT":0}]
